{
  "type": "FeatureCollection",
  "features": [
    {
      "type": "Feature",
      "properties": {
        "norad_id": 41772,
        "name": "SKYSAT-C5",
        "group": "resource",
        "lat": -71.89379360075647,
        "lon": 46.80495164779857,
        "alt_km": 468.53128694273073,
        "timestamp": "2025-12-06T11:28:10.686618+00:00",
        "meta_object_name": "SKYSAT-C5",
        "meta_object_id": "2016-058C",
        "meta_epoch": "2025-12-05T15:27:21.064320",
        "meta_mean_motion": 15.35460694,
        "meta_eccentricity": 0.00025778,
        "meta_inclination": 97.0752,
        "meta_ra_of_asc_node": 23.6787,
        "meta_arg_of_pericenter": 120.5249,
        "meta_mean_anomaly": 239.6251,
        "meta_ephemeris_type": 0,
        "meta_classification_type": "U",
        "meta_norad_cat_id": 41772,
        "meta_element_set_no": 999,
        "meta_rev_at_epoch": 51407,
        "meta_bstar": 0.00049911743,
        "meta_mean_motion_dot": 0.0001714,
        "meta_mean_motion_ddot": 0,
        "tle_line1": "1 41772U 16058C   25339.64399380  .00017140  00000+0  49912-3 0  9995",
        "tle_line2": "2 41772  97.0752  23.6787 0002577 120.5249 239.6251 15.35460694514078"
      },
      "geometry": {
        "type": "Point",
        "coordinates": [
          46.80495164779857,
          -71.89379360075647
        ]
      }
    },
    {
      "type": "Feature",
      "properties": {
        "norad_id": 41773,
        "name": "SKYSAT-C2",
        "group": "resource",
        "lat": -73.35138971026397,
        "lon": 160.87571587530266,
        "alt_km": 465.17684958900645,
        "timestamp": "2025-12-06T11:28:10.686628+00:00",
        "meta_object_name": "SKYSAT-C2",
        "meta_object_id": "2016-058D",
        "meta_epoch": "2025-12-05T23:25:37.371072",
        "meta_mean_motion": 15.37042678,
        "meta_eccentricity": 0.00048853,
        "meta_inclination": 97.0361,
        "meta_ra_of_asc_node": 4.7907,
        "meta_arg_of_pericenter": 51.6412,
        "meta_mean_anomaly": 308.5272,
        "meta_ephemeris_type": 0,
        "meta_classification_type": "U",
        "meta_norad_cat_id": 41773,
        "meta_element_set_no": 999,
        "meta_rev_at_epoch": 51532,
        "meta_bstar": 0.00046506823,
        "meta_mean_motion_dot": 0.00016802,
        "meta_mean_motion_ddot": 0,
        "tle_line1": "1 41773U 16058D   25339.97612698  .00016802  00000+0  46507-3 0  9993",
        "tle_line2": "2 41773  97.0361   4.7907 0004885  51.6412 308.5272 15.37042678515327"
      },
      "geometry": {
        "type": "Point",
        "coordinates": [
          160.87571587530266,
          -73.35138971026397
        ]
      }
    },
    {
      "type": "Feature",
      "properties": {
        "norad_id": 41774,
        "name": "SKYSAT-C3",
        "group": "resource",
        "lat": -74.04457659622035,
        "lon": 39.69529379753555,
        "alt_km": 442.44649246461904,
        "timestamp": "2025-12-06T11:28:10.686638+00:00",
        "meta_object_name": "SKYSAT-C3",
        "meta_object_id": "2016-058E",
        "meta_epoch": "2025-12-05T20:14:34.831680",
        "meta_mean_motion": 15.44042699,
        "meta_eccentricity": 0.00014809,
        "meta_inclination": 96.9301,
        "meta_ra_of_asc_node": 13.9125,
        "meta_arg_of_pericenter": 103.2825,
        "meta_mean_anomaly": 256.859,
        "meta_ephemeris_type": 0,
        "meta_classification_type": "U",
        "meta_norad_cat_id": 41774,
        "meta_element_set_no": 999,
        "meta_rev_at_epoch": 51619,
        "meta_bstar": 0.00062153379,
        "meta_mean_motion_dot": 0.00028352,
        "meta_mean_motion_ddot": 0,
        "tle_line1": "1 41774U 16058E   25339.84345870  .00028352  00000+0  62153-3 0  9993",
        "tle_line2": "2 41774  96.9301  13.9125 0001480 103.2825 256.8590 15.44042699516199"
      },
      "geometry": {
        "type": "Point",
        "coordinates": [
          39.69529379753555,
          -74.04457659622035
        ]
      }
    },
    {
      "type": "Feature",
      "properties": {
        "norad_id": 41785,
        "name": "ALSAT 1B",
        "group": "resource",
        "lat": -33.06448711178118,
        "lon": -2.354668821629613,
        "alt_km": 667.324979826536,
        "timestamp": "2025-12-06T11:28:10.686648+00:00",
        "meta_object_name": "ALSAT 1B",
        "meta_object_id": "2016-059C",
        "meta_epoch": "2025-12-05T22:34:13.854432",
        "meta_mean_motion": 14.72064444,
        "meta_eccentricity": 0.00105051,
        "meta_inclination": 97.7816,
        "meta_ra_of_asc_node": 352.0236,
        "meta_arg_of_pericenter": 123.0681,
        "meta_mean_anomaly": 237.1538,
        "meta_ephemeris_type": 0,
        "meta_classification_type": "U",
        "meta_norad_cat_id": 41785,
        "meta_element_set_no": 999,
        "meta_rev_at_epoch": 49214,
        "meta_bstar": 0.00014527319,
        "meta_mean_motion_dot": 8.67e-06,
        "meta_mean_motion_ddot": 0,
        "tle_line1": "1 41785U 16059C   25339.94043813  .00000867  00000+0  14527-3 0  9992",
        "tle_line2": "2 41785  97.7816 352.0236 0010505 123.0681 237.1538 14.72064444492143"
      },
      "geometry": {
        "type": "Point",
        "coordinates": [
          -2.354668821629613,
          -33.06448711178118
        ]
      }
    },
    {
      "type": "Feature",
      "properties": {
        "norad_id": 41787,
        "name": "PATHFINDER 1",
        "group": "resource",
        "lat": 26.932163174039864,
        "lon": 167.54254530792286,
        "alt_km": 655.7595881998504,
        "timestamp": "2025-12-06T11:28:10.686658+00:00",
        "meta_object_name": "PATHFINDER 1",
        "meta_object_id": "2016-059E",
        "meta_epoch": "2025-12-05T23:19:20.257536",
        "meta_mean_motion": 14.67302498,
        "meta_eccentricity": 0.00300191,
        "meta_inclination": 97.8138,
        "meta_ra_of_asc_node": 343.0595,
        "meta_arg_of_pericenter": 101.7527,
        "meta_mean_anomaly": 258.7049,
        "meta_ephemeris_type": 0,
        "meta_classification_type": "U",
        "meta_norad_cat_id": 41787,
        "meta_element_set_no": 999,
        "meta_rev_at_epoch": 49137,
        "meta_bstar": 0.00025657541,
        "meta_mean_motion_dot": 1.411e-05,
        "meta_mean_motion_ddot": 0,
        "tle_line1": "1 41787U 16059E   25339.97176224  .00001411  00000+0  25658-3 0  9993",
        "tle_line2": "2 41787  97.8138 343.0595 0030019 101.7527 258.7049 14.67302498491373"
      },
      "geometry": {
        "type": "Point",
        "coordinates": [
          167.54254530792286,
          26.932163174039864
        ]
      }
    },
    {
      "type": "Feature",
      "properties": {
        "norad_id": 41790,
        "name": "SCATSAT 1",
        "group": "resource",
        "lat": -63.04770130701932,
        "lon": -159.2934376730885,
        "alt_km": 644.1102558550656,
        "timestamp": "2025-12-06T11:28:10.686669+00:00",
        "meta_object_name": "SCATSAT 1",
        "meta_object_id": "2016-059H",
        "meta_epoch": "2025-12-05T21:22:57.884736",
        "meta_mean_motion": 14.78899787,
        "meta_eccentricity": 0.00559443,
        "meta_inclination": 98.147,
        "meta_ra_of_asc_node": 36.4759,
        "meta_arg_of_pericenter": 149.688,
        "meta_mean_anomaly": 210.7587,
        "meta_ephemeris_type": 0,
        "meta_classification_type": "U",
        "meta_norad_cat_id": 41790,
        "meta_element_set_no": 999,
        "meta_rev_at_epoch": 7301,
        "meta_bstar": 0.00044047024,
        "meta_mean_motion_dot": 3.277e-05,
        "meta_mean_motion_ddot": 0,
        "tle_line1": "1 41790U 16059H   25339.89094774  .00003277  00000+0  44047-3 0  9992",
        "tle_line2": "2 41790  98.1470  36.4759 0055944 149.6880 210.7587 14.78899787 73018"
      },
      "geometry": {
        "type": "Point",
        "coordinates": [
          -159.2934376730885,
          -63.04770130701932
        ]
      }
    },
    {
      "type": "Feature",
      "properties": {
        "norad_id": 41875,
        "name": "GOKTURK 1A",
        "group": "resource",
        "lat": -28.21540634087491,
        "lon": -122.6670750613875,
        "alt_km": 690.3734152411835,
        "timestamp": "2025-12-06T11:28:10.686679+00:00",
        "meta_object_name": "GOKTURK 1A",
        "meta_object_id": "2016-073A",
        "meta_epoch": "2025-12-05T22:27:58.168224",
        "meta_mean_motion": 14.62767111,
        "meta_eccentricity": 0.00012407,
        "meta_inclination": 98.1437,
        "meta_ra_of_asc_node": 232.3921,
        "meta_arg_of_pericenter": 82.6935,
        "meta_mean_anomaly": 277.4408,
        "meta_ephemeris_type": 0,
        "meta_classification_type": "U",
        "meta_norad_cat_id": 41875,
        "meta_element_set_no": 999,
        "meta_rev_at_epoch": 48057,
        "meta_bstar": 0.00021045899,
        "meta_mean_motion_dot": 1.026e-05,
        "meta_mean_motion_ddot": 0,
        "tle_line1": "1 41875U 16073A   25339.93608991  .00001026  00000+0  21046-3 0  9993",
        "tle_line2": "2 41875  98.1437 232.3921 0001240  82.6935 277.4408 14.62767111480573"
      },
      "geometry": {
        "type": "Point",
        "coordinates": [
          -122.6670750613875,
          -28.21540634087491
        ]
      }
    }
  ]
}